{"type": "FeatureCollection", "features": [{"type": "Feature", "properties": {"norad_id": 25590, "name": "COSMOS 2361", "group": "musson", "lat": -72.38649056439925, "lon": -37.5533375622275, "alt_km": 973.9913164097316, "timestamp": "2025-12-10T21:43:22.357697+00:00", "meta": {"OBJECT_NAME": "COSMOS 2361", "OBJECT_ID": "1998-076A", "EPOCH": "2025-12-10T12:08:02.704704", "MEAN_MOTION": 13.73217127, "ECCENTRICITY": 0.00300567, "INCLINATION": 82.9338, "RA_OF_ASC_NODE": 345.739, "ARG_OF_PERICENTER": 272.0915, "MEAN_ANOMALY": 200.0139, "EPHEMERIS_TYPE": 0, "CLASSIFICATION_TYPE": "U", "NORAD_CAT_ID": 25590, "ELEMENT_SET_NO": 999, "REV_AT_EPOCH": 35080, "BSTAR": 8.5020317e-05, "MEAN_MOTION_DOT": 9.4e-07, "MEAN_MOTION_DDOT": 0}, "tle": {"line1": "1 25590U 98076A   25344.50558686  .00000094  00000+0  85020-4 0  9993", "line2": "2 25590  82.9338 345.7390 0030056 272.0915 200.0139 13.73217127350802"}}, "geometry": {"type": "Point", "coordinates": [-37.5533375622275, -72.38649056439925]}}, {"type": "Feature", "properties": {"norad_id": 26818, "name": "COSMOS 2378", "group": "musson", "lat": -7.186746154329031, "lon": 0.18856371186207982, "alt_km": 1007.4260793623989, "timestamp": "2025-12-10T21:43:22.357718+00:00", "meta": {"OBJECT_NAME": "COSMOS 2378", "OBJECT_ID": "2001-023A", "EPOCH": "2025-12-10T11:48:43.250400", "MEAN_MOTION": 13.74141732, "ECCENTRICITY": 0.00322803, "INCLINATION": 82.9273, "RA_OF_ASC_NODE": 1.3916, "ARG_OF_PERICENTER": 211.2505, "MEAN_ANOMALY": 259.7094, "EPHEMERIS_TYPE": 0, "CLASSIFICATION_TYPE": "U", "NORAD_CAT_ID": 26818, "ELEMENT_SET_NO": 999, "REV_AT_EPOCH": 22892, "BSTAR": 5.9731447e-05, "MEAN_MOTION_DOT": 7.1e-07, "MEAN_MOTION_DDOT": 0}, "tle": {"line1": "1 26818U 01023A   25344.49216725  .00000071  00000+0  59731-4 0  9991", "line2": "2 26818  82.9273   1.3916 0032280 211.2505 259.7094 13.74141732228921"}}, "geometry": {"type": "Point", "coordinates": [0.18856371186207982, -7.186746154329031]}}, {"type": "Feature", "properties": {"norad_id": 27436, "name": "COSMOS 2389", "group": "musson", "lat": -13.335893909872611, "lon": 130.02392726577068, "alt_km": 1006.9117378526034, "timestamp": "2025-12-10T21:43:22.357731+00:00", "meta": {"OBJECT_NAME": "COSMOS 2389", "OBJECT_ID": "2002-026A", "EPOCH": "2025-12-10T10:54:24.322752", "MEAN_MOTION": 13.75154267, "ECCENTRICITY": 0.00476693, "INCLINATION": 82.95, "RA_OF_ASC_NODE": 308.6765, "ARG_OF_PERICENTER": 66.9463, "MEAN_ANOMALY": 56.1274, "EPHEMERIS_TYPE": 0, "CLASSIFICATION_TYPE": "U", "NORAD_CAT_ID": 27436, "ELEMENT_SET_NO": 999, "REV_AT_EPOCH": 18117, "BSTAR": 9.1929717e-05, "MEAN_MOTION_DOT": 1.04e-06, "MEAN_MOTION_DDOT": 0}, "tle": {"line1": "1 27436U 02026A   25344.45444818  .00000104  00000+0  91930-4 0  9998", "line2": "2 27436  82.9500 308.6765 0047669  66.9463  56.1274 13.75154267181173"}}, "geometry": {"type": "Point", "coordinates": [130.02392726577068, -13.335893909872611]}}, {"type": "Feature", "properties": {"norad_id": 27818, "name": "COSMOS 2398", "group": "musson", "lat": 15.6706092182714, "lon": 92.06033307943477, "alt_km": 975.4283947859685, "timestamp": "2025-12-10T21:43:22.357743+00:00", "meta": {"OBJECT_NAME": "COSMOS 2398", "OBJECT_ID": "2003-023A", "EPOCH": "2025-12-10T13:01:08.735808", "MEAN_MOTION": 13.72385409, "ECCENTRICITY": 0.00325067, "INCLINATION": 82.9484, "RA_OF_ASC_NODE": 274.3174, "ARG_OF_PERICENTER": 117.6704, "MEAN_ANOMALY": 55.4197, "EPHEMERIS_TYPE": 0, "CLASSIFICATION_TYPE": "U", "NORAD_CAT_ID": 27818, "ELEMENT_SET_NO": 999, "REV_AT_EPOCH": 12786, "BSTAR": 9.8488857e-05, "MEAN_MOTION_DOT": 1.06e-06, "MEAN_MOTION_DDOT": 0}, "tle": {"line1": "1 27818U 03023A   25344.54246222  .00000106  00000+0  98489-4 0  9997", "line2": "2 27818  82.9484 274.3174 0032506 117.6704  55.4197 13.72385409127860"}}, "geometry": {"type": "Point", "coordinates": [92.06033307943477, 15.6706092182714]}}, {"type": "Feature", "properties": {"norad_id": 28380, "name": "COSMOS 2407", "group": "musson", "lat": -26.702696802975353, "lon": -149.312066476147, "alt_km": 980.7806042669945, "timestamp": "2025-12-10T21:43:22.357754+00:00", "meta": {"OBJECT_NAME": "COSMOS 2407", "OBJECT_ID": "2004-028A", "EPOCH": "2025-12-10T15:00:04.529952", "MEAN_MOTION": 13.76313347, "ECCENTRICITY": 0.00404009, "INCLINATION": 82.9609, "RA_OF_ASC_NODE": 214.4584, "ARG_OF_PERICENTER": 60.5884, "MEAN_ANOMALY": 326.1848, "EPHEMERIS_TYPE": 0, "CLASSIFICATION_TYPE": "U", "NORAD_CAT_ID": 28380, "ELEMENT_SET_NO": 999, "REV_AT_EPOCH": 7394, "BSTAR": 7.1765852e-05, "MEAN_MOTION_DOT": 8.6e-07, "MEAN_MOTION_DDOT": 0}, "tle": {"line1": "1 28380U 04028A   25344.62505243  .00000086  00000+0  71766-4 0  9994", "line2": "2 28380  82.9609 214.4584 0040400  60.5884 326.1848 13.76313347 73947"}}, "geometry": {"type": "Point", "coordinates": [-149.312066476147, -26.702696802975353]}}, {"type": "Feature", "properties": {"norad_id": 28521, "name": "COSMOS 2414", "group": "musson", "lat": 18.960018284431623, "lon": 3.6105395944462177, "alt_km": 907.4793870891917, "timestamp": "2025-12-10T21:43:22.357765+00:00", "meta": {"OBJECT_NAME": "COSMOS 2414", "OBJECT_ID": "2005-002A", "EPOCH": "2025-12-10T12:18:05.361120", "MEAN_MOTION": 13.87902523, "ECCENTRICITY": 0.00407672, "INCLINATION": 82.9493, "RA_OF_ASC_NODE": 186.3442, "ARG_OF_PERICENTER": 145.9271, "MEAN_ANOMALY": 214.4522, "EPHEMERIS_TYPE": 0, "CLASSIFICATION_TYPE": "U", "NORAD_CAT_ID": 28521, "ELEMENT_SET_NO": 999, "REV_AT_EPOCH": 5764, "BSTAR": 7.192649e-05, "MEAN_MOTION_DOT": 1.02e-06, "MEAN_MOTION_DDOT": 0}, "tle": {"line1": "1 28521U 05002A   25344.51256205  .00000102  00000+0  71926-4 0  9990", "line2": "2 28521  82.9493 186.3442 0040767 145.9271 214.4522 13.87902523 57648"}}, "geometry": {"type": "Point", "coordinates": [3.6105395944462177, 18.960018284431623]}}, {"type": "Feature", "properties": {"norad_id": 32052, "name": "COSMOS 2429", "group": "musson", "lat": 18.35072178105978, "lon": -12.99627082497743, "alt_km": 954.960382276654, "timestamp": "2025-12-10T21:43:22.357775+00:00", "meta": {"OBJECT_NAME": "COSMOS 2429", "OBJECT_ID": "2007-038A", "EPOCH": "2025-12-10T11:09:22.781664", "MEAN_MOTION": 13.75149052, "ECCENTRICITY": 0.00393507, "INCLINATION": 82.9802, "RA_OF_ASC_NODE": 344.9859, "ARG_OF_PERICENTER": 44.061, "MEAN_ANOMALY": 316.3671, "EPHEMERIS_TYPE": 0, "CLASSIFICATION_TYPE": "U", "NORAD_CAT_ID": 32052, "ELEMENT_SET_NO": 999, "REV_AT_EPOCH": 91571, "BSTAR": 7.5521775e-05, "MEAN_MOTION_DOT": 8.8e-07, "MEAN_MOTION_DDOT": 0}, "tle": {"line1": "1 32052U 07038A   25344.46484701  .00000088  00000+0  75522-4 0  9992", "line2": "2 32052  82.9802 344.9859 0039350  44.0610 316.3671 13.75149052915717"}}, "geometry": {"type": "Point", "coordinates": [-12.99627082497743, 18.35072178105978]}}, {"type": "Feature", "properties": {"norad_id": 35635, "name": "COSMOS 2454", "group": "musson", "lat": -17.676682843255524, "lon": -7.705840544699381, "alt_km": 941.0594545315153, "timestamp": "2025-12-10T21:43:22.357786+00:00", "meta": {"OBJECT_NAME": "COSMOS 2454", "OBJECT_ID": "2009-039A", "EPOCH": "2025-12-10T12:24:35.911584", "MEAN_MOTION": 13.89928109, "ECCENTRICITY": 0.00204802, "INCLINATION": 82.9553, "RA_OF_ASC_NODE": 170.3299, "ARG_OF_PERICENTER": 79.6873, "MEAN_ANOMALY": 337.28, "EPHEMERIS_TYPE": 0, "CLASSIFICATION_TYPE": "U", "NORAD_CAT_ID": 35635, "ELEMENT_SET_NO": 999, "REV_AT_EPOCH": 83119, "BSTAR": 6.168139e-05, "MEAN_MOTION_DOT": 9.2e-07, "MEAN_MOTION_DDOT": 0}, "tle": {"line1": "1 35635U 09039A   25344.51708231  .00000092  00000+0  61681-4 0  9994", "line2": "2 35635  82.9553 170.3299 0020480  79.6873 337.2800 13.89928109831196"}}, "geometry": {"type": "Point", "coordinates": [-7.705840544699381, -17.676682843255524]}}, {"type": "Feature", "properties": {"norad_id": 36519, "name": "COSMOS 2463", "group": "musson", "lat": -1.4373717129156067, "lon": 27.883441623411116, "alt_km": 985.9279591902032, "timestamp": "2025-12-10T21:43:22.357796+00:00", "meta": {"OBJECT_NAME": "COSMOS 2463", "OBJECT_ID": "2010-017A", "EPOCH": "2025-12-10T11:46:29.650080", "MEAN_MOTION": 13.71648963, "ECCENTRICITY": 0.00348363, "INCLINATION": 82.9615, "RA_OF_ASC_NODE": 28.3655, "ARG_OF_PERICENTER": 294.5247, "MEAN_ANOMALY": 178.1615, "EPHEMERIS_TYPE": 0, "CLASSIFICATION_TYPE": "U", "NORAD_CAT_ID": 36519, "ELEMENT_SET_NO": 999, "REV_AT_EPOCH": 78206, "BSTAR": 6.8221398e-05, "MEAN_MOTION_DOT": 7.6e-07, "MEAN_MOTION_DDOT": 0}, "tle": {"line1": "1 36519U 10017A   25344.49062095  .00000076  00000+0  68221-4 0  9991", "line2": "2 36519  82.9615  28.3655 0034836 294.5247 178.1615 13.71648963782063"}}, "geometry": {"type": "Point", "coordinates": [27.883441623411116, -1.4373717129156067]}}]}